NORAD_CAT_ID,OBJECT_NAME,OBJECT_TYPE,EPOCH,MEAN_MOTION,ECCENTRICITY,INCLINATION,RA_OF_ASC_NODE,ARG_OF_PERICENTER,MEAN_ANOMALY,BSTAR,MEAN_MOTION_DOT,MEAN_MOTION_DDOT,TLE_LINE0,TLE_LINE1,TLE_LINE2,SEMIMAJOR_AXIS,PERIOD,APOGEE,PERIGEE,DECAYED
53789.0,STARLINK-4666,PAYLOAD,2023-03-31 07:11:00,15.08853953,0.0001265,53.216,56.9688,91.7469,268.3668,0.00077274,0.00012036,0.0,0 STARLINK-4666,1 53789U 22111S   23090.29930741  .00012036  00000-0  77274-3 0  9990,2 53789  53.2160  56.9688 0001265  91.7469 268.3668 15.08853953 30697,6917.838,95.437,540.578,538.828,0.0
53789.0,STARLINK-4666,PAYLOAD,2023-04-01 03:51:01,15.08841744,0.0001444,53.2183,53.1018,83.0016,277.114,0.0010819,0.00016973,0.0,0 STARLINK-4666,1 53789U 22111S   23091.16043553  .00016973  00000-0  10819-2 0  9998,2 53789  53.2183  53.1018 0001444  83.0016 277.1140 15.08841744 30822,6917.875,95.437,540.739,538.741,0.0
53789.0,STARLINK-4666,PAYLOAD,2023-04-01 07:01:47,15.0884315,0.0001451,53.2186,52.5066,83.8837,276.232,0.0011016,0.00017289,0.0,0 STARLINK-4666,1 53789U 22111S   23091.29291583  .00017289  00000-0  11016-2 0  9991,2 53789  53.2186  52.5066 0001451  83.8837 276.2320 15.08843150 31642,6917.871,95.437,540.74,538.732,0.0
53789.0,STARLINK-4666,PAYLOAD,2023-04-02 06:52:34,15.08853696,0.0001325,53.2178,48.0473,80.1995,279.9147,0.00088228,0.00013787,0.0,0 STARLINK-4666,1 53789U 22111S   23092.28651497  .00013787  00000-0  88228-3 0  9994,2 53789  53.2178  48.0473 0001325  80.1995 279.9147 15.08853696 30990,6917.839,95.437,540.62,538.787,0.0
53789.0,STARLINK-4666,PAYLOAD,2023-04-03 05:07:58,15.08855524,0.0001223,53.2185,43.8854,83.4006,276.7125,0.00044547,6.812e-05,0.0,0 STARLINK-4666,1 53789U 22111S   23093.21387142  .00006812  00000-0  44547-3 0  9998,2 53789  53.2185  43.8854 0001223  83.4006 276.7125 15.08855524 31130,6917.833,95.437,540.544,538.852,0.0
53789.0,STARLINK-4666,PAYLOAD,2023-04-03 06:43:21,15.08857962,0.0001239,53.2183,43.5875,84.5119,275.6015,0.00050601,7.778e-05,0.0,0 STARLINK-4666,1 53789U 22111S   23093.28011038  .00007778  00000-0  50601-3 0  9993,2 53789  53.2183  43.5875 0001239  84.5119 275.6015 15.08857962 31945,6917.825,95.436,540.548,538.833,0.0
53789.0,STARLINK-4666,PAYLOAD,2023-04-03 21:01:49,15.08841835,0.0001393,53.2177,40.9102,97.5447,262.5704,9.1655e-05,1.171e-05,0.0,0 STARLINK-4666,1 53789U 22111S   23093.87627268  .00001171  00000-0  91655-4 0  9992,2 53789  53.2177  40.9102 0001393  97.5447 262.5704 15.08841835 31235,6917.875,95.437,540.703,538.776,0.0
53789.0,STARLINK-4666,PAYLOAD,2023-04-04 03:23:22,15.08846659,0.0001276,53.2182,39.7242,88.7089,271.405,0.00039706,6.038e-05,0.0,0 STARLINK-4666,1 53789U 22111S   23094.14123242  .00006038  00000-0  39706-3 0  9991,2 53789  53.2182  39.7242 0001276  88.7089 271.4050 15.08846659 32071,6917.86,95.437,540.608,538.842,0.0
53789.0,STARLINK-4666,PAYLOAD,2023-04-04 20:52:37,15.08839609,0.0001418,53.2183,36.4548,93.8604,266.255,-0.00042212,-7e-05,0.0,0 STARLINK-4666,1 53789U 22111S   23094.86987692 -.00007000  00000-0 -42212-3 0  9995,2 53789  53.2183  36.4548 0001418  93.8604 266.2550 15.08839609 31380,6917.882,95.438,540.728,538.766,0.0
53789.0,STARLINK-4666,PAYLOAD,2023-04-05 06:24:55,15.08847952,0.0001253,53.2181,34.6681,86.8674,273.2461,0.00020869,3.036e-05,0.0,0 STARLINK-4666,1 53789U 22111S   23095.26731277  .00003036  00000-0  20869-3 0  9993,2 53789  53.2181  34.6681 0001253  86.8674 273.2461 15.08847952 31448,6917.856,95.437,540.588,538.854,0.0
53789.0,STARLINK-4666,PAYLOAD,2023-04-06 06:15:43,15.08842812,0.0001313,53.2187,30.205,96.2357,263.8785,0.00018096,2.593e-05,0.0,0 STARLINK-4666,1 53789U 22111S   23096.26091770  .00002593  00000-0  18096-3 0  9997,2 53789  53.2187  30.2050 0001313  96.2357 263.8785 15.08842812 31596,6917.872,95.437,540.645,538.828,0.0
53789.0,STARLINK-4666,PAYLOAD,2023-04-07 04:31:06,15.08851146,0.0001178,53.2179,26.0425,103.9883,256.1241,0.00022679,3.324e-05,0.0,0 STARLINK-4666,1 53789U 22111S   23097.18827355  .00003324  00000-0  22679-3 0  9990,2 53789  53.2179  26.0425 0001178 103.9883 256.1241 15.08851146 32532,6917.846,95.437,540.526,538.896,0.0
53789.0,STARLINK-4666,PAYLOAD,2023-04-08 01:11:08,15.08841619,0.00012,53.2191,22.1779,96.3916,263.7213,5.7629e-05,6.29e-06,0.0,0 STARLINK-4666,1 53789U 22111S   23098.04939965  .00000629  00000-0  57629-4 0  9996,2 53789  53.2191  22.1779 0001200  96.3916 263.7213 15.08841619 31865,6917.875,95.437,540.571,538.91,0.0
53789.0,STARLINK-4666,PAYLOAD,2023-04-08 04:21:54,15.08845472,0.0001196,53.2182,21.583,98.1691,261.9437,0.00010966,1.458e-05,0.0,0 STARLINK-4666,1 53789U 22111S   23098.18187746  .00001458  00000-0  10966-3 0  9996,2 53789  53.2182  21.5830 0001196  98.1691 261.9437 15.08845472 32680,6917.864,95.437,540.556,538.901,0.0
53789.0,STARLINK-4666,PAYLOAD,2023-04-09 04:12:41,15.08846053,0.0001309,53.218,17.1228,101.1789,258.935,8.0145e-05,9.88e-06,0.0,0 STARLINK-4666,1 53789U 22111S   23099.17547753  .00000988  00000-0  80145-4 0  9998,2 53789  53.2180  17.1228 0001309 101.1789 258.9350 15.08846053 32034,6917.862,95.437,540.632,538.821,0.0
53789.0,STARLINK-4666,PAYLOAD,2023-04-09 18:31:10,15.0883701,0.0001378,53.2184,14.4455,99.4508,260.664,3.2896e-05,2.36e-06,0.0,0 STARLINK-4666,1 53789U 22111S   23099.77164513  .00000236  00000-0  32896-4 0  9999,2 53789  53.2184  14.4455 0001378  99.4508 260.6640 15.08837010 32129,6917.89,95.438,540.708,538.801,0.0
53789.0,STARLINK-4666,PAYLOAD,2023-04-10 04:03:28,15.08842327,0.0001311,53.2181,12.6625,94.9062,265.208,9.7479e-05,1.264e-05,0.0,0 STARLINK-4666,1 53789U 22111S   23100.16908310  .00001264  00000-0  97479-4 0  9996,2 53789  53.2181  12.6625 0001311  94.9062 265.2080 15.08842327 32987,6917.873,95.437,540.645,538.831,0.0
53789.0,STARLINK-4666,PAYLOAD,2023-04-11 02:18:52,15.08854886,0.0001344,53.2181,8.5008,89.3709,270.7437,0.00028292,4.219e-05,0.0,0 STARLINK-4666,1 53789U 22111S   23101.09643748  .00004219  00000-0  28292-3 0  9999,2 53789  53.2181   8.5008 0001344  89.3709 270.7437 15.08854886 32326,6917.835,95.437,540.63,538.77,0.0
53789.0,STARLINK-4666,PAYLOAD,2023-04-11 18:12:44,15.0883542,0.0001362,53.218,5.5275,86.106,274.0088,-4.6646e-05,-1.03e-05,0.0,0 STARLINK-4666,1 53789U 22111S   23101.75884728 -.00001030  00000-0 -46646-4 0  9991,2 53789  53.2180   5.5275 0001362  86.1060 274.0088 15.08835420 33225,6917.894,95.438,540.702,538.817,0.0
53789.0,STARLINK-4666,PAYLOAD,2023-04-12 03:45:03,15.08831479,9.55e-05,53.2174,3.7431,90.9205,269.1897,-8.1841e-05,-1.59e-05,0.0,0 STARLINK-4666,1 53789U 22111S   23102.15628990 -.00001590  00000-0 -81841-4 0  9990,2 53789  53.2174   3.7431 0000955  90.9205 269.1897 15.08831479 33282,6917.906,95.438,540.432,539.111,0.0
53789.0,STARLINK-4666,PAYLOAD,2023-04-13 02:00:26,15.0885232,8.09e-05,53.2175,359.5801,95.9458,264.1626,0.00047697,7.314e-05,0.0,0 STARLINK-4666,1 53789U 22111S   23103.08364452  .00007314  00000-0  47697-3 0  9991,2 53789  53.2175 359.5801 0000809  95.9458 264.1626 15.08852320 33428,6917.843,95.437,540.267,539.148,0.0
53789.0,STARLINK-4666,PAYLOAD,2023-04-14 01:51:13,15.08850581,6.83e-05,53.217,355.1195,86.3444,273.7627,0.00026789,3.98e-05,0.0,0 STARLINK-4666,1 53789U 22111S   23104.07724320  .00003980  00000-0  26789-3 0  9999,2 53789  53.2170 355.1195 0000683  86.3444 273.7627 15.08850581 33570,6917.848,95.437,540.186,539.241,0.0
53789.0,STARLINK-4666,PAYLOAD,2023-04-14 22:31:14,15.08844874,0.0001069,53.218,351.2519,67.0559,293.0545,2.7366e-05,1.48e-06,0.0,0 STARLINK-4666,1 53789U 22111S   23104.93836570  .00000148  00000-0  27366-4 0  9991,2 53789  53.2180 351.2519 0001069  67.0559 293.0545 15.08844874 32908,6917.865,95.437,540.47,538.991,0.0
53789.0,STARLINK-4666,PAYLOAD,2023-04-15 01:42:00,15.08848834,0.0001078,53.2181,350.6576,69.5382,290.5726,0.0001513,2.122e-05,0.0,0 STARLINK-4666,1 53789U 22111S   23105.07084310  .00002122  00000-0  15130-3 0  9993,2 53789  53.2181 350.6576 0001078  69.5382 290.5726 15.08848834 33720,6917.853,95.437,540.464,538.973,0.0
53789.0,STARLINK-4666,PAYLOAD,2023-04-15 22:22:01,15.08842549,8.08e-05,53.2179,346.7925,98.6442,261.4642,0.00014681,2.05e-05,0.0,0 STARLINK-4666,1 53789U 22111S   23105.93196687  .00002050  00000-0  14681-3 0  9999,2 53789  53.2179 346.7925 0000808  98.6442 261.4642 15.08842549 33856,6917.873,95.437,540.297,539.179,0.0
53789.0,STARLINK-4666,PAYLOAD,2023-04-16 01:32:47,15.08848905,8.93e-05,53.2174,346.1968,103.0544,257.0548,0.00027846,4.148e-05,0.0,0 STARLINK-4666,1 53789U 22111S   23106.06444425  .00004148  00000-0  27846-3 0  9997,2 53789  53.2174 346.1968 0000893 103.0544 257.0548 15.08848905 33870,6917.853,95.437,540.336,539.1,0.0
53789.0,STARLINK-4666,PAYLOAD,2023-04-16 20:37:25,15.08844744,7.87e-05,53.2182,342.6307,90.3201,269.7882,0.00014766,2.063e-05,0.0,0 STARLINK-4666,1 53789U 22111S   23106.85932674  .00002063  00000-0  14766-3 0  9993,2 53789  53.2182 342.6307 0000787  90.3201 269.7882 15.08844744 33190,6917.866,95.437,540.275,539.186,0.0
53789.0,STARLINK-4666,PAYLOAD,2023-04-16 22:12:49,15.08845702,8.52e-05,53.2181,342.3321,102.1806,257.9282,0.00023394,3.438e-05,0.0,0 STARLINK-4666,1 53789U 22111S   23106.92556714  .00003438  00000-0  23394-3 0  9992,2 53789  53.2181 342.3321 0000852 102.1806 257.9282 15.08845702 34007,6917.863,95.437,540.317,539.139,0.0
53789.0,STARLINK-4666,PAYLOAD,2023-04-17 01:23:35,15.0885156,9.03e-05,53.2174,341.7372,106.8546,253.2545,0.00031047,4.658e-05,0.0,0 STARLINK-4666,1 53789U 22111S   23107.05804432  .00004658  00000-0  31047-3 0  9999,2 53789  53.2174 341.7372 0000903 106.8546 253.2545 15.08851560 34029,6917.845,95.437,540.335,539.085,0.0
53789.0,STARLINK-4666,PAYLOAD,2023-04-17 22:03:36,15.08843427,7.78e-05,53.2169,337.874,99.7336,260.3744,3.6582e-05,2.95e-06,0.0,0 STARLINK-4666,1 53789U 22111S   23107.91916907  .00000295  00000-0  36582-4 0  9998,2 53789  53.2169 337.8740 0000778  99.7336 260.3744 15.08843427 34152,6917.87,95.437,540.273,539.197,0.0
